[{"OBJECT_NAME":"IRIDIUM 165","OBJECT_ID":"2018-061D","EPOCH":"2026-03-09T12:28:22.404000","MEAN_MOTION":14.34217296,"ECCENTRICITY":0.00020877,"INCLINATION":86.3917,"RA_OF_ASC_NODE":98.4934,"ARG_OF_PERICENTER":96.9181,"MEAN_ANOMALY":263.2252,"EPHEMERIS_TYPE":0,"CLASSIFICATION_TYPE":"U","NORAD_CAT_ID":43572,"ELEMENT_SET_NO":999,"REV_AT_EPOCH":39910,"BSTAR":7.29473e-7,"MEAN_MOTION_DOT":2.2e-7,"MEAN_MOTION_DDOT":0},{"OBJECT_NAME":"SL-14 DEB","OBJECT_ID":"1987-068DK","EPOCH":"2026-03-09T12:06:08.152992","MEAN_MOTION":14.40666045,"ECCENTRICITY":0.00439802,"INCLINATION":82.1528,"RA_OF_ASC_NODE":347.517,"ARG_OF_PERICENTER":80.4606,"MEAN_ANOMALY":43.4862,"EPHEMERIS_TYPE":0,"CLASSIFICATION_TYPE":"U","NORAD_CAT_ID":39983,"ELEMENT_SET_NO":999,"REV_AT_EPOCH":60872,"BSTAR":0.002291923,"MEAN_MOTION_DOT":7.418e-5,"MEAN_MOTION_DDOT":0}]
